NORAD_CAT_ID,OBJECT_NAME,OBJECT_TYPE,EPOCH,MEAN_MOTION,ECCENTRICITY,INCLINATION,RA_OF_ASC_NODE,ARG_OF_PERICENTER,MEAN_ANOMALY,BSTAR,MEAN_MOTION_DOT,MEAN_MOTION_DDOT,TLE_LINE0,TLE_LINE1,TLE_LINE2,SEMIMAJOR_AXIS,PERIOD,APOGEE,PERIGEE,DECAYED
54071.0,STARLINK-5168,PAYLOAD,2023-08-14 07:15:04,15.088421,0.0001322,53.215,236.3969,94.232,265.8823,5.4773e-05,5.84e-06,0.0,0 STARLINK-5168,1 54071U 22136W   23226.30213428  .00000584  00000-0  54773-4 0  9996,2 54071  53.2150 236.3969 0001322  94.2320 265.8823 15.08842100 45665,6917.874,95.437,540.654,538.824,0.0
54071.0,STARLINK-5168,PAYLOAD,2023-08-15 10:16:36,15.08862072,0.0001354,53.216,231.3427,95.6139,264.5008,-0.00013814,-2.487e-05,0.0,0 STARLINK-5168,1 54071U 22136W   23227.42820271 -.00002487  00000-0 -13814-3 0  9996,2 54071  53.2160 231.3427 0001354  95.6139 264.5008 15.08862072 45838,6917.813,95.436,540.615,538.741,0.0
54071.0,STARLINK-5168,PAYLOAD,2023-08-16 00:35:06,15.0883959,0.0001339,53.2151,228.6665,88.8772,271.2374,9.6489e-05,1.248e-05,0.0,0 STARLINK-5168,1 54071U 22136W   23228.02437516  .00001248  00000-0  96489-4 0  9991,2 54071  53.2151 228.6665 0001339  88.8772 271.2374 15.08839590 45921,6917.882,95.438,540.673,538.82,0.0
54071.0,STARLINK-5168,PAYLOAD,2023-08-17 05:12:02,15.08841768,0.0001358,53.2166,223.3141,93.1707,266.944,5.1206e-05,5.27e-06,0.0,0 STARLINK-5168,1 54071U 22136W   23229.21669543  .00000527  00000-0  51206-4 0  9997,2 54071  53.2166 223.3141 0001358  93.1707 266.9440 15.08841768 46102,6917.875,95.437,540.679,538.801,0.0
54071.0,STARLINK-5168,PAYLOAD,2023-08-18 03:27:26,15.08834872,0.0001271,53.2165,219.1513,90.1382,269.9756,4.5027e-05,4.29e-06,0.0,0 STARLINK-5168,1 54071U 22136W   23230.14406129  .00000429  00000-0  45027-4 0  9995,2 54071  53.2165 219.1513 0001271  90.1382 269.9756 15.08834872 46243,6917.896,95.438,540.64,538.882,0.0
54071.0,STARLINK-5168,PAYLOAD,2023-08-19 04:53:36,15.08842734,0.0001331,53.2156,214.3923,89.438,270.6764,8.1789e-05,1.014e-05,0.0,0 STARLINK-5168,1 54071U 22136W   23231.20389730  .00001014  00000-0  81789-4 0  9997,2 54071  53.2156 214.3923 0001331  89.4380 270.6764 15.08842734 46403,6917.872,95.437,540.658,538.816,0.0
54071.0,STARLINK-5168,PAYLOAD,2023-08-20 03:09:01,15.08836423,0.0001509,53.2168,210.2302,101.2966,258.8195,5.0386e-05,5.14e-06,0.0,0 STARLINK-5168,1 54071U 22136W   23232.13126326  .00000514  00000-0  50386-4 0  9993,2 54071  53.2168 210.2302 0001509 101.2966 258.8195 15.08836423 46541,6917.891,95.438,540.8,538.712,0.0
54071.0,STARLINK-5168,PAYLOAD,2023-08-21 04:35:10,15.08847883,0.0001402,53.2162,205.4724,92.487,267.6283,8.3193e-05,1.037e-05,0.0,0 STARLINK-5168,1 54071U 22136W   23233.19109493  .00001037  00000-0  83193-4 0  9999,2 54071  53.2162 205.4724 0001402  92.4870 267.6283 15.08847883 46702,6917.856,95.437,540.691,538.751,0.0
54071.0,STARLINK-5168,PAYLOAD,2023-08-21 07:45:56,15.08858168,0.0001462,53.2163,204.8777,90.6229,269.4931,-1.6677e-06,-3.15e-06,0.0,0 STARLINK-5168,1 54071U 22136W   23233.32357090 -.00000315  00000-0 -16677-5 0  9996,2 54071  53.2163 204.8777 0001462  90.6229 269.4931 15.08858168 46728,6917.825,95.436,540.701,538.678,0.0
54071.0,STARLINK-5168,PAYLOAD,2023-08-22 04:25:58,15.08835655,0.0001637,53.2169,201.0114,92.5013,267.6167,-1.064e-05,-4.57e-06,0.0,0 STARLINK-5168,1 54071U 22136W   23234.18470617 -.00000457  00000-0 -10640-4 0  9992,2 54071  53.2169 201.0114 0001637  92.5013 267.6167 15.08835655 46855,6917.894,95.438,540.891,538.626,0.0
54071.0,STARLINK-5168,PAYLOAD,2023-08-23 02:41:21,15.08843245,0.0001634,53.2172,196.8452,104.5642,255.5531,3.5263e-05,2.73e-06,0.0,0 STARLINK-5168,1 54071U 22136W   23235.11205877  .00000273  00000-0  35263-4 0  9992,2 54071  53.2172 196.8452 0001634 104.5642 255.5531 15.08843245 46994,6917.87,95.437,540.866,538.605,0.0
54071.0,STARLINK-5168,PAYLOAD,2023-08-24 07:18:18,15.08840163,0.0001416,53.2166,191.4956,96.0497,264.0657,6.0937e-05,6.82e-06,0.0,0 STARLINK-5168,1 54071U 22136W   23236.30438226  .00000682  00000-0  60937-4 0  9990,2 54071  53.2166 191.4956 0001416  96.0497 264.0657 15.08840163 46695,6917.88,95.438,540.724,538.765,0.0
54071.0,STARLINK-5168,PAYLOAD,2023-08-25 07:09:05,15.08842264,0.000137,53.2171,187.035,96.4803,263.6346,2.4803e-05,1.07e-06,0.0,0 STARLINK-5168,1 54071U 22136W   23237.29798404  .00000107  00000-0  24803-4 0  9990,2 54071  53.2171 187.0350 0001370  96.4803 263.6346 15.08842264 47329,6917.873,95.437,540.686,538.791,0.0
54071.0,STARLINK-5168,PAYLOAD,2023-08-25 19:52:11,15.08836834,0.0001516,53.2183,184.6587,94.7054,265.4111,2.8881e-05,1.72e-06,0.0,0 STARLINK-5168,1 54071U 22136W   23237.82790947  .00000172  00000-0  28881-4 0  9995,2 54071  53.2183 184.6587 0001516  94.7054 265.4111 15.08836834 46929,6917.89,95.438,540.804,538.706,0.0
54071.0,STARLINK-5168,PAYLOAD,2023-08-26 00:38:20,15.0883669,0.0001442,53.2179,183.7662,96.8596,263.256,2.15e-05,5.4e-07,0.0,0 STARLINK-5168,1 54071U 22136W   23238.02663004  .00000054  00000-0  21500-4 0  9991,2 54071  53.2179 183.7662 0001442  96.8596 263.2560 15.08836690 47431,6917.891,95.438,540.753,538.758,0.0
54071.0,STARLINK-5168,PAYLOAD,2023-08-26 02:13:43,15.08837684,0.000147,53.2179,183.469,96.4026,263.7134,2.9738e-05,1.85e-06,0.0,0 STARLINK-5168,1 54071U 22136W   23238.09286964  .00000185  00000-0  29738-4 0  9990,2 54071  53.2179 183.4690 0001470  96.4026 263.7134 15.08837684 46967,6917.887,95.438,540.769,538.736,0.0
54071.0,STARLINK-5168,PAYLOAD,2023-08-27 02:04:30,15.08841784,0.0001488,53.2178,179.0084,93.173,266.9432,4.0556e-05,3.58e-06,0.0,0 STARLINK-5168,1 54071U 22136W   23239.08646853  .00000358  00000-0  40556-4 0  9990,2 54071  53.2178 179.0084 0001488  93.1730 266.9432 15.08841784 47591,6917.875,95.437,540.769,538.711,0.0
54071.0,STARLINK-5168,PAYLOAD,2023-08-27 05:15:17,15.08814803,0.000148,53.2164,178.4122,99.8918,260.2241,0.00045544,6.963e-05,0.0,0 STARLINK-5168,1 54071U 22136W   23239.21895069  .00006963  00000-0  45544-3 0  9999,2 54071  53.2164 178.4122 0001480  99.8918 260.2241 15.08814803 47615,6917.957,95.439,540.846,538.799,0.0
54071.0,STARLINK-5168,PAYLOAD,2023-08-28 01:55:18,15.08838524,0.0001289,53.2168,174.5476,90.8886,269.2254,4.6051e-05,4.45e-06,0.0,0 STARLINK-5168,1 54071U 22136W   23240.08007039  .00000445  00000-0  46051-4 0  9992,2 54071  53.2168 174.5476 0001289  90.8886 269.2254 15.08838524 47743,6917.885,95.438,540.642,538.858,0.0
54071.0,STARLINK-5168,PAYLOAD,2023-08-28 05:06:03,15.08846722,0.000133,53.2164,173.9509,92.4856,267.6289,8.5497e-05,1.073e-05,0.0,0 STARLINK-5168,1 54071U 22136W   23240.21254354  .00001073  00000-0  85497-4 0  9996,2 54071  53.2164 173.9509 0001330  92.4856 267.6289 15.08846722 47762,6917.86,95.437,540.645,538.805,0.0
54071.0,STARLINK-5168,PAYLOAD,2023-08-28 13:03:00,15.08835787,0.0001307,53.2157,172.4621,93.6941,266.42,2.1555e-05,5.5e-07,0.0,0 STARLINK-5168,1 54071U 22136W   23240.54375194  .00000055  00000-0  21555-4 0  9992,2 54071  53.2157 172.4621 0001307  93.6941 266.4200 15.08835787 47810,6917.893,95.438,540.662,538.854,0.0
54071.0,STARLINK-5168,PAYLOAD,2023-08-29 04:56:50,15.08846981,0.0001373,53.2166,169.491,88.4777,271.6372,5.7303e-05,6.24e-06,0.0,0 STARLINK-5168,1 54071U 22136W   23241.20614433  .00000624  00000-0  57303-4 0  9990,2 54071  53.2166 169.4910 0001373  88.4777 271.6372 15.08846981 47916,6917.859,95.437,540.674,538.774,0.0
54071.0,STARLINK-5168,PAYLOAD,2023-08-29 12:53:46,15.08844308,0.0001307,53.2164,168.0052,95.204,264.9101,3.5134e-06,-2.32e-06,0.0,0 STARLINK-5168,1 54071U 22136W   23241.53734671 -.00000232  00000-0  35134-5 0  9998,2 54071  53.2164 168.0052 0001307  95.2040 264.9101 15.08844308 47480,6917.867,95.437,540.636,538.828,0.0
54071.0,STARLINK-5168,PAYLOAD,2023-08-30 01:36:52,15.08839713,0.0001455,53.2173,165.626,90.6943,269.4215,-8.5976e-06,-4.25e-06,0.0,0 STARLINK-5168,1 54071U 22136W   23242.06727242 -.00000425  00000-0 -85976-5 0  9997,2 54071  53.2173 165.6260 0001455  90.6943 269.4215 15.08839713 48042,6917.881,95.438,540.753,538.74,0.0
54071.0,STARLINK-5168,PAYLOAD,2023-08-30 04:47:38,15.08843349,0.0001446,53.2172,165.0309,89.9758,270.14,-1.3299e-05,-5e-06,0.0,0 STARLINK-5168,1 54071U 22136W   23242.19975028 -.00000500  00000-0 -13299-4 0  9990,2 54071  53.2172 165.0309 0001446  89.9758 270.1400 15.08843349 47587,6917.87,95.437,540.735,538.735,0.0
54071.0,STARLINK-5168,PAYLOAD,2023-08-31 01:27:39,15.08836786,0.0001672,53.2174,161.1651,91.1128,269.0056,3.1604e-05,2.15e-06,0.0,0 STARLINK-5168,1 54071U 22136W   23243.06087489  .00000215  00000-0  31604-4 0  9993,2 54071  53.2174 161.1651 0001672  91.1128 269.0056 15.08836786 47719,6917.89,95.438,540.912,538.599,0.0
54071.0,STARLINK-5168,PAYLOAD,2023-09-01 01:18:26,15.0883668,0.0001162,53.2171,156.7054,90.1659,269.9466,5.7454e-05,6.27e-06,0.0,0 STARLINK-5168,1 54071U 22136W   23244.05447684  .00000627  00000-0  57454-4 0  9998,2 54071  53.2171 156.7054 0001162  90.1659 269.9466 15.08836680 48342,6917.891,95.438,540.559,538.952,0.0
54071.0,STARLINK-5168,PAYLOAD,2023-09-01 10:50:45,15.08843089,0.0001235,53.2173,154.9217,88.7635,271.3498,4.6502e-05,4.52e-06,0.0,0 STARLINK-5168,1 54071U 22136W   23244.45191372  .00000452  00000-0  46502-4 0  9990,2 54071  53.2173 154.9217 0001235  88.7635 271.3498 15.08843089 47929,6917.871,95.437,540.59,538.882,0.0
54071.0,STARLINK-5168,PAYLOAD,2023-09-02 02:44:36,15.08827002,0.0001276,53.2177,151.949,86.8996,273.2142,0.00029001,4.329e-05,0.0,0 STARLINK-5168,1 54071U 22136W   23245.11431666  .00004329  00000-0  29001-3 0  9998,2 54071  53.2177 151.9490 0001276  86.8996 273.2142 15.08827002 48506,6917.92,95.438,540.668,538.902,0.0
54071.0,STARLINK-5168,PAYLOAD,2023-09-02 10:41:32,15.08840697,0.0001106,53.2172,150.4612,81.1378,278.9739,8.9563e-05,1.138e-05,0.0,0 STARLINK-5168,1 54071U 22136W   23245.44551522  .00001138  00000-0  89563-4 0  9993,2 54071  53.2172 150.4612 0001106  81.1378 278.9739 15.08840697 48076,6917.878,95.438,540.508,538.978,0.0
